NORAD_CAT_ID,OBJECT_NAME,OBJECT_TYPE,EPOCH,MEAN_MOTION,ECCENTRICITY,INCLINATION,RA_OF_ASC_NODE,ARG_OF_PERICENTER,MEAN_ANOMALY,BSTAR,MEAN_MOTION_DOT,MEAN_MOTION_DDOT,TLE_LINE0,TLE_LINE1,TLE_LINE2,SEMIMAJOR_AXIS,PERIOD,APOGEE,PERIGEE,DECAYED
51780.0,STARLINK-3617,PAYLOAD,2022-04-25 22:00:00,15.54523183,0.0001391,53.2174,211.1195,49.0942,248.7351,-0.01167,-0.00716043,0.0,0 STARLINK-3617,1 51780U 22017N   22115.91667824 -.00716043  00000-0 -11670-1 0  9996,2 51780  53.2174 211.1195 0001391  49.0942 248.7351 15.54523183 10601,6781.676,92.633,404.484,402.598,0.0
51780.0,STARLINK-3617,PAYLOAD,2022-04-26 14:00:01,15.53503418,0.000201,53.2176,207.9164,26.6989,42.9273,-0.012114,-0.00716085,0.0,0 STARLINK-3617,1 51780U 22017N   22116.58335648 -.00716085  00000-0 -12114-1 0  9996,2 51780  53.2176 207.9164 0002010  26.6989  42.9273 15.53503418  3699,6784.644,92.694,407.872,405.145,0.0
51780.0,STARLINK-3617,PAYLOAD,2022-04-26 22:00:00,15.52992078,0.0002033,53.2173,206.3149,27.9089,106.6012,-0.012296,-0.00713627,0.0,0 STARLINK-3617,1 51780U 22017N   22116.91667824 -.00713627  00000-0 -12296-1 0  9997,2 51780  53.2173 206.3149 0002033  27.9089 106.6012 15.52992078 10759,6786.1330000000025,92.724,409.377,406.61800000000005,0.0
51780.0,STARLINK-3617,PAYLOAD,2022-04-27 14:00:01,15.51972116,0.000208,53.2175,203.1192,29.7924,232.8378,-0.012756,-0.00713438,0.0,0 STARLINK-3617,1 51780U 22017N   22117.58335648 -.00713438  00000-0 -12756-1 0  9998,2 51780  53.2175 203.1192 0002080  29.7924 232.8378 15.51972116  3696,6789.106,92.785,412.383,409.5580000000001,0.0
51780.0,STARLINK-3617,PAYLOAD,2022-04-27 22:00:00,15.51463503,0.0001463,53.2174,201.5214,42.9469,282.7278,-0.013041,-0.00724962,0.0,0 STARLINK-3617,1 51780U 22017N   22117.91667824 -.00724962  00000-0 -13041-1 0  9991,2 51780  53.2174 201.5214 0001463  42.9469 282.7278 15.51463503 10918,6790.589,92.816,413.448,411.461,0.0
51780.0,STARLINK-3617,PAYLOAD,2022-04-28 14:00:01,15.50401861,0.0001688,53.2174,198.3329,35.8078,54.2545,-0.011561,-0.00618536,0.0,0 STARLINK-3617,1 51780U 22017N   22118.58334491 -.00618536  00000-0 -11561-1 0  9990,2 51780  53.2174 198.3329 0001688  35.8078  54.2545 15.50401861  3711,6793.689,92.879,416.701,414.407,0.0
51780.0,STARLINK-3617,PAYLOAD,2022-04-28 20:00:01,15.49928413,0.0001525,53.2173,197.1369,41.4576,4.6231,-0.0012165999999999,-0.00069001,0.0,0 STARLINK-3617,1 51780U 22017N   22118.83334491 -.00069001  00000-0 -12166-2 0  9998,2 51780  53.2173 197.1369 0001525  41.4576   4.6231 15.49928413 11059,6795.071999999999,92.908,417.974,415.901,0.0
51780.0,STARLINK-3617,PAYLOAD,2022-04-29 06:00:00,15.49886758,0.0001699,53.2176,195.1443,42.8551,169.3891,-1.9422e-05,-1.554e-05,0.0,0 STARLINK-3617,1 51780U 22017N   22119.25001157 -.00001554  00000-0 -19422-4 0  9998,2 51780  53.2176 195.1443 0001699  42.8551 169.3891 15.49886758 11116,6795.194,92.91,418.214,415.905,0.0
51780.0,STARLINK-3617,PAYLOAD,2022-04-29 14:00:01,15.49924124,0.0002085,53.2159,193.5445,42.0599,231.298,-0.00095407,-0.00054305,0.0,0 STARLINK-3617,1 51780U 22017N   22119.58334491 -.00054305  00000-0 -95407-3 0  9992,2 51780  53.2159 193.5445 0002085  42.0599 231.2980 15.49924124 11179,6795.085,92.908,418.367,415.533,0.0
51780.0,STARLINK-3617,PAYLOAD,2022-04-29 22:00:00,15.4987798,0.0001867,53.2155,191.9498,40.5152,293.7764,-5.8255e-05,-3.756e-05,0.0,0 STARLINK-3617,1 51780U 22017N   22119.91667824 -.00003756  00000-0 -58255-4 0  9993,2 51780  53.2155 191.9498 0001867  40.5152 293.7764 15.49877980  3698,6795.22,92.911,418.353,415.816,0.0
51780.0,STARLINK-3617,PAYLOAD,2022-04-30 06:00:00,15.49932842,0.0001781999999999,53.2155,190.3569,40.7551,354.4349,-0.0016721,-0.00094381,0.0,0 STARLINK-3617,1 51780U 22017N   22120.25001157 -.00094381  00000-0 -16721-2 0  9997,2 51780  53.2155 190.3569 0001782  40.7551 354.4349 15.49932842 11277,6795.059,92.907,418.135,415.713,0.0
51780.0,STARLINK-3617,PAYLOAD,2022-04-30 14:00:01,15.4989854,0.0002102,53.2164,188.7695,31.524,64.5715,-0.0031611,-0.00175992,0.0,0 STARLINK-3617,1 51780U 22017N   22120.58334491 -.00175992  00000-0 -31611-2 0  9996,2 51780  53.2164 188.7695 0002102  31.5240  64.5715 15.49898540  3675,6795.16,92.909,418.453,415.596,0.0
51780.0,STARLINK-3617,PAYLOAD,2022-04-30 22:00:00,15.49721796,0.0001837,53.2171,187.1778,35.6499,121.3357,-0.004078,-0.00224122,0.0,0 STARLINK-3617,1 51780U 22017N   22120.91667824 -.00224122  00000-0 -40780-2 0  9999,2 51780  53.2171 187.1778 0001837  35.6499 121.3357 15.49721796 11371,6795.676,92.92,418.79,416.293,0.0
51780.0,STARLINK-3617,PAYLOAD,2022-05-01 06:00:00,15.49591417,0.000195,53.2177,185.5877,33.9552,183.6687,-0.013837,-0.00719907,0.0,0 STARLINK-3617,1 51780U 22017N   22121.25001157 -.00719907  00000-0 -13837-1 0  9990,2 51780  53.2177 185.5877 0001950  33.9552 183.6687 15.49591417 11424,6796.057,92.928,419.24800000000016,416.597,0.0
51780.0,STARLINK-3617,PAYLOAD,2022-05-01 14:00:01,15.49080759,0.000188,53.2175,183.9986,34.0736,243.799,-0.014073,-0.00719107,0.0,0 STARLINK-3617,1 51780U 22017N   22121.58334491 -.00719107  00000-0 -14073-1 0  9991,2 51780  53.2175 183.9986 0001880  34.0736 243.7990 15.49080759  3678,6797.551,92.958,420.694,418.138,0.0
51780.0,STARLINK-3617,PAYLOAD,2022-05-01 22:00:01,15.48573122,0.0001569,53.2175,182.4071,38.0247,299.5495,-0.01442,-0.0072336,0.0,0 STARLINK-3617,1 51780U 22017N   22121.91668981 -.00723360  00000-0 -14420-1 0  9994,2 51780  53.2175 182.4071 0001569  38.0247 299.5495 15.48573122  3705,6799.036,92.989,421.968,419.835,0.0
51780.0,STARLINK-3617,PAYLOAD,2022-05-02 06:00:00,15.4806329,0.0001796,53.2175,180.8189,29.8887,6.6445,-0.014675,-0.00723128,0.0,0 STARLINK-3617,1 51780U 22017N   22122.25001157 -.00723128  00000-0 -14675-1 0  9992,2 51780  53.2175 180.8189 0001796  29.8887   6.6445 15.48063290 11584,6800.529,93.019,423.615,421.173,0.0
51780.0,STARLINK-3617,PAYLOAD,2022-05-02 14:00:01,15.47548464,0.0002066,53.2174,179.2333,26.1883,68.7569,-0.0147699999999999,-0.00715447,0.0,0 STARLINK-3617,1 51780U 22017N   22122.58334491 -.00715447  00000-0 -14770-1 0  9999,2 51780  53.2174 179.2333 0002066  26.1883  68.7569 15.47548464  3692,6802.0369999999975,93.05,425.307,422.497,0.0
51780.0,STARLINK-3617,PAYLOAD,2022-05-02 22:00:01,15.470406699999998,0.0001771999999999,53.2175,177.6454,36.9157,115.8924,-0.015101,-0.00718346,0.0,0 STARLINK-3617,1 51780U 22017N   22122.91668981 -.00718346  00000-0 -15101-1 0  9990,2 51780  53.2175 177.6454 0001772  36.9157 115.8924 15.47040670  3690,6803.526,93.081,426.596,424.185,0.0
51780.0,STARLINK-3617,PAYLOAD,2022-05-03 14:00:01,15.46018883,0.0001725,53.2176,174.4788,39.9926,226.5087,-0.015567,-0.00714961,0.0,0 STARLINK-3617,1 51780U 22017N   22123.58334491 -.00714961  00000-0 -15567-1 0  9995,2 51780  53.2176 174.4788 0001725  39.9926 226.5087 15.46018883 11791,6806.523,93.142,429.562,427.214,0.0
51780.0,STARLINK-3617,PAYLOAD,2022-05-03 22:00:00,15.45511905,0.000169,53.2176,172.8946,34.3731,288.0884,-0.0159729999999999,-0.00720436,0.0,0 STARLINK-3617,1 51780U 22017N   22123.91667824 -.00720436  00000-0 -15973-1 0  9996,2 51780  53.2176 172.8946 0001690  34.3731 288.0884 15.45511905  3682,6808.011,93.173,431.027,428.726,0.0
51780.0,STARLINK-3617,PAYLOAD,2022-05-04 14:00:01,15.44489156,0.000157,53.2174,169.7355,38.9379,33.6048,-0.016421,-0.0071545,0.0,0 STARLINK-3617,1 51780U 22017N   22124.58334491 -.00715450  00000-0 -16421-1 0  9990,2 51780  53.2174 169.7355 0001570  38.9379  33.6048 15.44489156 11949,6811.016,93.235,433.951,431.812,0.0
51780.0,STARLINK-3617,PAYLOAD,2022-05-04 22:00:01,15.43980107,0.0001636999999999,53.2174,168.1549,39.0554,87.67399999999998,-0.016744,-0.00716847,0.0,0 STARLINK-3617,1 51780U 22017N   22124.91668981 -.00716847  00000-0 -16744-1 0  9990,2 51780  53.2174 168.1549 0001637  39.0554  87.6740 15.43980107  3690,6812.513000000001,93.265,435.494,433.263,0.0
51780.0,STARLINK-3617,PAYLOAD,2022-05-05 14:00:01,15.42958419,0.0001788,53.2172,165.0029,39.9354,193.1338,-0.017245,-0.00713401,0.0,0 STARLINK-3617,1 51780U 22017N   22125.58334491 -.00713401  00000-0 -17245-1 0  9990,2 51780  53.2172 165.0029 0001788  39.9354 193.1338 15.42958419  3697,6815.52,93.327,438.604,436.167,0.0
51780.0,STARLINK-3617,PAYLOAD,2022-05-05 16:00:00,15.42837184,0.0001582,53.217,164.6083,41.3248,294.8704,-0.017574,-0.00723212,0.0,0 STARLINK-3617,1 51780U 22017N   22125.66667824 -.00723212  00000-0 -17574-1 0  9994,2 51780  53.2170 164.6083 0001582  41.3248 294.8704 15.42837184 12119,6815.878000000002,93.335,438.821,436.664,0.0
51780.0,STARLINK-3617,PAYLOAD,2022-05-05 22:00:00,15.42372097,0.0001598,53.2171,163.4249,36.952,248.4398,-0.01479,-0.00600291,0.0,0 STARLINK-3617,1 51780U 22017N   22125.91667824 -.00600291  00000-0 -14790-1 0  9990,2 51780  53.2171 163.4249 0001598  36.9520 248.4398 15.42372097  3651,6817.248000000001,93.363,440.202,438.023,0.0
51780.0,STARLINK-3617,PAYLOAD,2022-05-06 14:00:01,15.41430944,0.0001459,53.2172,160.2816,42.1951,345.8842,-0.018258,-0.00717084,0.0,0 STARLINK-3617,1 51780U 22017N   22126.58334491 -.00717084  00000-0 -18258-1 0  9997,2 51780  53.2172 160.2816 0001459  42.1951 345.8842 15.41430944  3684,6820.022,93.42,442.882,440.892,0.0
51780.0,STARLINK-3617,PAYLOAD,2022-05-06 22:00:00,15.40920227,0.0001433,53.2174,158.7082,44.7804,33.7456,-0.018564,-0.00716773,0.0,0 STARLINK-3617,1 51780U 22017N   22126.91667824 -.00716773  00000-0 -18564-1 0  9997,2 51780  53.2174 158.7082 0001433  44.7804  33.7456 15.40920227 12300,6821.529,93.451,444.372,442.417,0.0
51780.0,STARLINK-3617,PAYLOAD,2022-05-07 14:00:01,15.39900497,0.0001616,53.2172,155.5709,46.5485,131.0274,-0.019193,-0.00716395,0.0,0 STARLINK-3617,1 51780U 22017N   22127.58334491 -.00716395  00000-0 -19193-1 0  9991,2 51780  53.2172 155.5709 0001616  46.5485 131.0274 15.39900497  3683,6824.54,93.513,447.508,445.302,0.0
